OCEANSAT-2              
1 35931U 09051A   26188.21563270 -.00000190  00000+0 -10448-3 0  9998
2 35931  98.2318 173.0677 0016804 176.6735 183.4546 13.99657639882130
WORLDVIEW-2 (WV-2)      
1 35946U 09055A   26188.20454623  .00000089  00000+0  43924-4 0  9999
2 35946  98.4759 261.3812 0004945 149.6392 210.5083 14.37905438878523
SMOS                    
1 36036U 09059A   26187.99570619  .00000205  00000+0  79272-4 0  9998
2 36036  98.4428  15.0405 0001301  86.7559 273.3778 14.39783373876304
YAOGAN-7                
1 36110U 09069A   26188.12767834  .00000396  00000+0  61972-4 0  9994
2 36110  98.0047  73.8694 0024056 338.2842  21.7346 14.78030223892579
TANDEM-X                
1 36605U 10030A   26187.49113280  .00000441  00000+0  24210-4 0  9997
2 36605  97.4457 194.9233 0001853  95.7650 264.3796 15.19153296889574
CARTOSAT-2B             
1 36795U 10035A   26188.16714392  .00000934  00000+0  13456-3 0  9994
2 36795  97.9937 238.5886 0012347 122.5059 237.7347 14.78611932862806
YAOGAN-10               
1 36834U 10038A   26188.22906426  .00001858  00000+0  22197-3 0  9997
2 36834  97.8969 211.4734 0001632  84.2815   6.1709 14.85413386860185
COSMO-SKYMED 4          
1 37216U 10060A   26188.15680735  .00000537  00000+0  74021-4 0  9998
2 37216  97.8896  11.4671 0001509  85.2096 274.9289 14.82163623847526
RESOURCESAT-2           
1 37387U 11015A   26188.14812227  .00000066  00000+0  50470-4 0  9999
2 37387  98.7635 255.4512 0011111 194.0468 166.0401 14.21604806789014
RASAT                   
1 37791U 11044D   26188.20842442  .00000321  00000+0  64033-4 0  9993
2 37791  98.0576 279.3002 0021659 126.6416 263.6795 14.68187176796128
SRMSAT                  
1 37841U 11058D   26187.37330642  .00000384  00000+0  64430-4 0  9995
2 37841  19.9727 303.3445 0011875  55.1210 344.5933 14.11579689760531
PLEIADES 1A             
1 38012U 11076F   26188.16176174  .00000274  00000+0  68774-4 0  9995
2 38012  98.1966 262.9958 0001730  84.6659 359.5126 14.58544311774909
ZIYUAN 1-02C (ZY 1-02C) 
1 38038U 11079A   26188.18598454  .00000304  00000+0  11409-3 0  9993
2 38038  98.4058 255.0761 0005257 242.9792 202.4060 14.38231478762086
ARIRANG-3 (KOMPSAT-3)   
1 38338U 12025B   26188.15118223  .00000361  00000+0  80823-4 0  9997
2 38338  98.1180 145.2677 0006620  59.5865 300.5990 14.62224138754261
EXACTVIEW-1 (ADS-1B)    
1 38709U 12039C   26187.33944017  .00000128  00000+0  74292-4 0  9995
2 38709  98.9797 305.1641 0011890 114.6379 245.6039 14.24990420725433
SPOT 6                  
1 38755U 12047A   26188.16107646  .00000302  00000+0  74776-4 0  9997
2 38755  98.2106 255.2356 0001151  78.4180 281.7149 14.58536161735962
PLEIADES 1B             
1 39019U 12068A   26188.17966889  .00000213  00000+0  55538-4 0  9993
2 39019  98.1936 262.9560 0001640  81.9660 278.1725 14.58573644723765
GOKTURK 2               
1 39030U 12073A   26188.15331619  .00000178  00000+0  33015-4 0  9993
2 39030  97.6815  24.5829 0000936  71.5727 288.5584 14.75562757727454
LANDSAT 8               
1 39084U 13008A   26188.14505069  .00000262  00000+0  68167-4 0  9992
2 39084  98.2293 258.0425 0001347  94.4325 265.7027 14.57108112700801
SARAL                   
1 39086U 13009A   26188.15201014  .00000060  00000+0  38046-4 0  9998
2 39086  98.5554  14.4667 0001209 189.8706 170.2455 14.32894303698467
GAOFEN-1                
1 39150U 13018A   26188.18996616  .00000543  00000+0  85081-4 0  9999
2 39150  97.9083 259.8511 0016378 197.2751 162.7904 14.76513829711198
VNREDSAT 1              
1 39160U 13021B   26188.17115692  .00000316  00000+0  67699-4 0  9993
2 39160  97.9064 240.8199 0001665  82.5904 277.5488 14.64878458703214
SKYSAT-A                
1 39418U 13066C   26188.09773233  .00002472  00000+0  14268-3 0  9998
2 39418  97.3802 236.8604 0019883 243.0841 116.8359 15.13085318691493
DUBAISAT-2              
1 39419U 13066D   26188.14631399  .00002008  00000+0  12618-3 0  9993
2 39419  97.4578 177.7702 0010014 334.7729  25.3010 15.10336335689408
GPM-CORE                
1 39574U 14009C   26188.14911551  .00005196  00000+0  11485-3 0  9996
2 39574  64.9704 241.2522 0011130 259.3550 100.6338 15.44981168700895
SENTINEL-1A             
1 39634U 14016A   26188.18462197  .00000172  00000+0  46286-4 0  9999
2 39634  98.1783 195.4257 0001403  86.7994 273.3367 14.59200598652936
KAZEOSAT 1              
1 39731U 14024A   26188.14329859  .00000097  00000+0  42418-4 0  9998
2 39731  98.3193 260.0939 0001288  82.5549 277.5787 14.42035359641436
ALOS-2                  
1 39766U 14029A   26188.22613105  .00001483  00000+0  20540-3 0  9991
2 39766  97.9223 285.1034 0001579  92.8917 267.2475 14.79470589654547
KAZEOSAT 2              
1 40010U 14033A   26188.16854698  .00000797  00000+0  98131-4 0  9996
2 40010  97.5397  26.7235 0007061 251.5924 108.4524 14.85494226651926
