OBJECT_NAME,OBJECT_ID,EPOCH,MEAN_MOTION,ECCENTRICITY,INCLINATION,RA_OF_ASC_NODE,ARG_OF_PERICENTER,MEAN_ANOMALY,EPHEMERIS_TYPE,CLASSIFICATION_TYPE,NORAD_CAT_ID,ELEMENT_SET_NO,REV_AT_EPOCH,BSTAR,MEAN_MOTION_DOT,MEAN_MOTION_DDOT
OCEANSAT-2,2009-051A,2026-07-07T05:10:30.665280,13.99657639,.0016804,98.2318,173.0677,176.6735,183.4546,0,U,35931,999,88213,-.10448E-3,-.19E-5,0
WORLDVIEW-2 (WV-2),2009-055A,2026-07-07T04:54:32.794272,14.37905438,.0004945,98.4759,261.3812,149.6392,210.5083,0,U,35946,999,87852,.43924E-4,.89E-6,0
SMOS,2009-059A,2026-07-06T23:53:49.014816,14.39783373,.0001301,98.4428,15.0405,86.7559,273.3778,0,U,36036,999,87630,.79272E-4,.205E-5,0
YAOGAN-7,2009-069A,2026-07-07T03:03:51.408576,14.78030223,.0024056,98.0047,73.8694,338.2842,21.7346,0,U,36110,999,89257,.61972E-4,.396E-5,0
TANDEM-X,2010-030A,2026-07-06T11:47:13.873920,15.19153296,.00018532,97.4457,194.9233,95.7650,264.3796,0,U,36605,999,88957,.24210035E-4,.441E-5,0
CARTOSAT-2B,2010-035A,2026-07-07T04:00:41.234688,14.78611932,.0012347,97.9937,238.5886,122.5059,237.7347,0,U,36795,999,86280,.13456E-3,.934E-5,0
YAOGAN-10,2010-038A,2026-07-07T05:29:51.152064,14.85413386,.0001632,97.8969,211.4734,84.2815,6.1709,0,U,36834,999,86018,.22197E-3,.1858E-4,0
COSMO-SKYMED 4,2010-060A,2026-07-07T03:45:48.155040,14.82163623,.0001509,97.8896,11.4671,85.2096,274.9289,0,U,37216,999,84752,.74021E-4,.537E-5,0
RESOURCESAT-2,2011-015A,2026-07-07T03:33:17.764128,14.21604806,.0011111,98.7635,255.4512,194.0468,166.0401,0,U,37387,999,78901,.5047E-4,.66E-6,0
RASAT,2011-044D,2026-07-07T05:00:07.869888,14.68187176,.0021659,98.0576,279.3002,126.6416,263.6795,0,U,37791,999,79612,.64033E-4,.321E-5,0
SRMSAT,2011-058D,2026-07-06T08:57:33.674688,14.11579689,.0011875,19.9727,303.3445,55.1210,344.5933,0,U,37841,999,76053,.64430167E-4,.384E-5,0
PLEIADES 1A,2011-076F,2026-07-07T03:52:56.214336,14.58544311,.000173,98.1966,262.9958,84.6659,359.5126,0,U,38012,999,77490,.68774E-4,.274E-5,0
ZIYUAN 1-02C (ZY 1-02C),2011-079A,2026-07-07T04:27:49.064256,14.38231478,.0005257,98.4058,255.0761,242.9792,202.4060,0,U,38038,999,76208,.11409E-3,.304E-5,0
ARIRANG-3 (KOMPSAT-3),2012-025B,2026-07-07T03:37:42.144672,14.62224138,.000662,98.1180,145.2677,59.5865,300.5990,0,U,38338,999,75426,.80823E-4,.361E-5,0
EXACTVIEW-1 (ADS-1B),2012-039C,2026-07-06T08:08:47.630688,14.24990420,.00118909,98.9797,305.1641,114.6379,245.6039,0,U,38709,999,72543,.74291809E-4,.128E-5,0
SPOT 6,2012-047A,2026-07-07T03:51:57.006144,14.58536161,.0001151,98.2106,255.2356,78.4180,281.7149,0,U,38755,999,73596,.74776E-4,.302E-5,0
PLEIADES 1B,2012-068A,2026-07-07T04:18:43.392096,14.58573644,.000164,98.1936,262.9560,81.9660,278.1725,0,U,39019,999,72376,.55538E-4,.213E-5,0
GOKTURK 2,2012-073A,2026-07-07T03:40:46.518816,14.75562757,.0000936,97.6815,24.5829,71.5727,288.5584,0,U,39030,999,72745,.33015E-4,.178E-5,0
LANDSAT 8,2013-008A,2026-07-07T03:28:52.379616,14.57108112,.0001347,98.2293,258.0425,94.4325,265.7027,0,U,39084,999,70080,.68167E-4,.262E-5,0
SARAL,2013-009A,2026-07-07T03:38:53.676096,14.32894303,.0001209,98.5554,14.4667,189.8706,170.2455,0,U,39086,999,69846,.38046E-4,.6E-6,0
GAOFEN-1,2013-018A,2026-07-07T04:33:33.076224,14.76513829,.0016378,97.9083,259.8511,197.2751,162.7904,0,U,39150,999,71119,.85081E-4,.543E-5,0
VNREDSAT 1,2013-021B,2026-07-07T04:06:27.957888,14.64878458,.0001665,97.9064,240.8199,82.5904,277.5488,0,U,39160,999,70321,.67699E-4,.316E-5,0
SKYSAT-A,2013-066C,2026-07-07T02:20:44.073312,15.13085318,.0019883,97.3802,236.8604,243.0841,116.8359,0,U,39418,999,69149,.14268E-3,.2472E-4,0
DUBAISAT-2,2013-066D,2026-07-07T03:30:41.528736,15.10336335,.0010014,97.4578,177.7702,334.7729,25.3010,0,U,39419,999,68940,.12618E-3,.2008E-4,0
GPM-CORE,2014-009C,2026-07-07T03:34:43.580064,15.44981168,.001113,64.9704,241.2522,259.3550,100.6338,0,U,39574,999,70089,.11485E-3,.5196E-4,0
SENTINEL-1A,2014-016A,2026-07-07T04:25:51.338208,14.59200598,.0001403,98.1783,195.4257,86.7994,273.3367,0,U,39634,999,65293,.46286E-4,.172E-5,0
KAZEOSAT 1,2014-024A,2026-07-07T03:26:20.998176,14.42035359,.0001288,98.3193,260.0939,82.5549,277.5787,0,U,39731,999,64143,.42418E-4,.97E-6,0
ALOS-2,2014-029A,2026-07-07T05:25:37.722720,14.79470589,.0001579,97.9223,285.1034,92.8917,267.2475,0,U,39766,999,65454,.2054E-3,.1483E-4,0
KAZEOSAT 2,2014-033A,2026-07-07T04:02:42.459072,14.85494226,.0007061,97.5397,26.7235,251.5924,108.4524,0,U,40010,999,65192,.98131E-4,.797E-5,0
